[{"OBJECT_NAME":"STARLINK-32505","OBJECT_ID":"2025-037J","EPOCH":"2026-03-09T22:00:01.999584","MEAN_MOTION":14.98348642,"ECCENTRICITY":0.00031381,"INCLINATION":70.003,"RA_OF_ASC_NODE":354.0433,"ARG_OF_PERICENTER":266.347,"MEAN_ANOMALY":34.7136,"EPHEMERIS_TYPE":0,"CLASSIFICATION_TYPE":"U","NORAD_CAT_ID":63085,"ELEMENT_SET_NO":999,"REV_AT_EPOCH":576,"BSTAR":-0.0027350248,"MEAN_MOTION_DOT":-0.00032592,"MEAN_MOTION_DDOT":0},{"OBJECT_NAME":"CZ-2C R\/B","OBJECT_ID":"2023-187D","EPOCH":"2026-03-09T21:18:27.461376","MEAN_MOTION":14.91546811,"ECCENTRICITY":0.00358476,"INCLINATION":98.1132,"RA_OF_ASC_NODE":178.247,"ARG_OF_PERICENTER":167.8673,"MEAN_ANOMALY":192.3416,"EPHEMERIS_TYPE":0,"CLASSIFICATION_TYPE":"U","NORAD_CAT_ID":58499,"ELEMENT_SET_NO":999,"REV_AT_EPOCH":12301,"BSTAR":0.00023879444,"MEAN_MOTION_DOT":2.36e-5,"MEAN_MOTION_DDOT":0}]
